METEOR M2
1 40069U 14037A   23156.43954553  .00000066  00000-0  49692-4 0  9995
2 40069  98.4233 162.9609 0006258  28.4256 331.7262 14.20781589461988
137100
45000